[{"OBJECT_NAME":"HULIANWANG DIGUI-33","OBJECT_ID":"2025-121D","EPOCH":"2026-03-02T18:33:47.114208","MEAN_MOTION":13.24425262,"ECCENTRICITY":0.0002093,"INCLINATION":86.4962,"RA_OF_ASC_NODE":49.4948,"ARG_OF_PERICENTER":79.2285,"MEAN_ANOMALY":280.9085,"EPHEMERIS_TYPE":0,"CLASSIFICATION_TYPE":"U","NORAD_CAT_ID":64286,"ELEMENT_SET_NO":999,"REV_AT_EPOCH":3607,"BSTAR":7.5687e-5,"MEAN_MOTION_DOT":4.7e-7,"MEAN_MOTION_DDOT":0},{"OBJECT_NAME":"HULIANWANG DIGUI-34","OBJECT_ID":"2025-121E","EPOCH":"2026-03-02T18:22:58.632960","MEAN_MOTION":13.24424171,"ECCENTRICITY":0.0002252,"INCLINATION":86.494,"RA_OF_ASC_NODE":49.4297,"ARG_OF_PERICENTER":75.6787,"MEAN_ANOMALY":284.4597,"EPHEMERIS_TYPE":0,"CLASSIFICATION_TYPE":"U","NORAD_CAT_ID":64287,"ELEMENT_SET_NO":999,"REV_AT_EPOCH":3607,"BSTAR":0.00010097,"MEAN_MOTION_DOT":5.8e-7,"MEAN_MOTION_DDOT":0},{"OBJECT_NAME":"HULIANWANG DIGUI-35","OBJECT_ID":"2025-159A","EPOCH":"2026-03-02T19:23:27.177216","MEAN_MOTION":13.24416914,"ECCENTRICITY":0.000132,"INCLINATION":86.4989,"RA_OF_ASC_NODE":318.3883,"ARG_OF_PERICENTER":70.7789,"MEAN_ANOMALY":289.3487,"EPHEMERIS_TYPE":0,"CLASSIFICATION_TYPE":"U","NORAD_CAT_ID":64956,"ELEMENT_SET_NO":999,"REV_AT_EPOCH":2904,"BSTAR":0.00017101,"MEAN_MOTION_DOT":8.8e-7,"MEAN_MOTION_DDOT":0},{"OBJECT_NAME":"HULIANWANG DIGUI-36","OBJECT_ID":"2025-159B","EPOCH":"2026-03-02T19:12:18.228672","MEAN_MOTION":13.2441951,"ECCENTRICITY":0.00014,"INCLINATION":86.5009,"RA_OF_ASC_NODE":318.4281,"ARG_OF_PERICENTER":69.9875,"MEAN_ANOMALY":290.141,"EPHEMERIS_TYPE":0,"CLASSIFICATION_TYPE":"U","NORAD_CAT_ID":64957,"ELEMENT_SET_NO":999,"REV_AT_EPOCH":2904,"BSTAR":0.00014778,"MEAN_MOTION_DOT":7.8e-7,"MEAN_MOTION_DDOT":0},{"OBJECT_NAME":"HULIANWANG DIGUI-37","OBJECT_ID":"2025-159C","EPOCH":"2026-03-02T19:01:26.535072","MEAN_MOTION":13.24419139,"ECCENTRICITY":0.0001481,"INCLINATION":86.4949,"RA_OF_ASC_NODE":318.2941,"ARG_OF_PERICENTER":68.1228,"MEAN_ANOMALY":292.0064,"EPHEMERIS_TYPE":0,"CLASSIFICATION_TYPE":"U","NORAD_CAT_ID":64958,"ELEMENT_SET_NO":999,"REV_AT_EPOCH":2904,"BSTAR":0.00013841,"MEAN_MOTION_DOT":7.4e-7,"MEAN_MOTION_DDOT":0},{"OBJECT_NAME":"HULIANWANG DIGUI-38","OBJECT_ID":"2025-159D","EPOCH":"2026-03-02T18:50:35.516256","MEAN_MOTION":13.24419304,"ECCENTRICITY":0.0001451,"INCLINATION":86.5008,"RA_OF_ASC_NODE":318.421,"ARG_OF_PERICENTER":70.5871,"MEAN_ANOMALY":289.5419,"EPHEMERIS_TYPE":0,"CLASSIFICATION_TYPE":"U","NORAD_CAT_ID":64959,"ELEMENT_SET_NO":999,"REV_AT_EPOCH":2904,"BSTAR":0.00010233,"MEAN_MOTION_DOT":5.9e-7,"MEAN_MOTION_DDOT":0},{"OBJECT_NAME":"HULIANWANG DIGUI-39","OBJECT_ID":"2025-159E","EPOCH":"2026-03-02T18:39:41.722272","MEAN_MOTION":13.24419478,"ECCENTRICITY":0.0001457,"INCLINATION":86.4985,"RA_OF_ASC_NODE":318.364,"ARG_OF_PERICENTER":71.8191,"MEAN_ANOMALY":288.3102,"EPHEMERIS_TYPE":0,"CLASSIFICATION_TYPE":"U","NORAD_CAT_ID":64960,"ELEMENT_SET_NO":999,"REV_AT_EPOCH":2904,"BSTAR":8.716e-5,"MEAN_MOTION_DOT":5.2e-7,"MEAN_MOTION_DDOT":0},{"OBJECT_NAME":"HULIANWANG DIGUI-40","OBJECT_ID":"2025-162A","EPOCH":"2026-03-02T18:53:57.528960","MEAN_MOTION":13.2933199,"ECCENTRICITY":0.0001006,"INCLINATION":49.9992,"RA_OF_ASC_NODE":287.5864,"ARG_OF_PERICENTER":65.3803,"MEAN_ANOMALY":294.7174,"EPHEMERIS_TYPE":0,"CLASSIFICATION_TYPE":"U","NORAD_CAT_ID":65043,"ELEMENT_SET_NO":999,"REV_AT_EPOCH":2919,"BSTAR":0.00011092,"MEAN_MOTION_DOT":-7.3e-7,"MEAN_MOTION_DDOT":0},{"OBJECT_NAME":"HULIANWANG DIGUI-41","OBJECT_ID":"2025-162B","EPOCH":"2026-03-02T18:41:55.937760","MEAN_MOTION":13.2933235,"ECCENTRICITY":0.0001051,"INCLINATION":50.0002,"RA_OF_ASC_NODE":287.56,"ARG_OF_PERICENTER":65.7079,"MEAN_ANOMALY":294.3903,"EPHEMERIS_TYPE":0,"CLASSIFICATION_TYPE":"U","NORAD_CAT_ID":65044,"ELEMENT_SET_NO":999,"REV_AT_EPOCH":2920,"BSTAR":0.00012467,"MEAN_MOTION_DOT":-6.6e-7,"MEAN_MOTION_DDOT":0},{"OBJECT_NAME":"HULIANWANG DIGUI-42","OBJECT_ID":"2025-162C","EPOCH":"2026-03-02T18:29:51.727776","MEAN_MOTION":13.29331697,"ECCENTRICITY":9.87e-5,"INCLINATION":49.9967,"RA_OF_ASC_NODE":287.4553,"ARG_OF_PERICENTER":66.8188,"MEAN_ANOMALY":293.2788,"EPHEMERIS_TYPE":0,"CLASSIFICATION_TYPE":"U","NORAD_CAT_ID":65045,"ELEMENT_SET_NO":999,"REV_AT_EPOCH":2920,"BSTAR":0.00011007,"MEAN_MOTION_DOT":-7.3e-7,"MEAN_MOTION_DDOT":0},{"OBJECT_NAME":"HULIANWANG DIGUI-43","OBJECT_ID":"2025-162D","EPOCH":"2026-03-02T20:06:03.809376","MEAN_MOTION":13.29332729,"ECCENTRICITY":9.83e-5,"INCLINATION":49.9984,"RA_OF_ASC_NODE":287.1737,"ARG_OF_PERICENTER":65.8614,"MEAN_ANOMALY":294.236,"EPHEMERIS_TYPE":0,"CLASSIFICATION_TYPE":"U","NORAD_CAT_ID":65046,"ELEMENT_SET_NO":999,"REV_AT_EPOCH":2921,"BSTAR":0.00012959,"MEAN_MOTION_DOT":-6.4e-7,"MEAN_MOTION_DDOT":0},{"OBJECT_NAME":"HULIANWANG DIGUI-44","OBJECT_ID":"2025-162E","EPOCH":"2026-03-02T18:05:22.609824","MEAN_MOTION":13.29340317,"ECCENTRICITY":7.91e-5,"INCLINATION":50.0012,"RA_OF_ASC_NODE":287.4457,"ARG_OF_PERICENTER":344.4883,"MEAN_ANOMALY":15.5965,"EPHEMERIS_TYPE":0,"CLASSIFICATION_TYPE":"U","NORAD_CAT_ID":65047,"ELEMENT_SET_NO":999,"REV_AT_EPOCH":2921,"BSTAR":0.00013237,"MEAN_MOTION_DOT":-6.3e-7,"MEAN_MOTION_DDOT":0},{"OBJECT_NAME":"HULIANWANG DIGUI-45","OBJECT_ID":"2025-162F","EPOCH":"2026-03-02T17:53:47.768064","MEAN_MOTION":13.29332632,"ECCENTRICITY":0.0001041,"INCLINATION":50.0041,"RA_OF_ASC_NODE":287.457,"ARG_OF_PERICENTER":65.3381,"MEAN_ANOMALY":294.76,"EPHEMERIS_TYPE":0,"CLASSIFICATION_TYPE":"U","NORAD_CAT_ID":65048,"ELEMENT_SET_NO":999,"REV_AT_EPOCH":2920,"BSTAR":0.00013514,"MEAN_MOTION_DOT":-6.1e-7,"MEAN_MOTION_DDOT":0},{"OBJECT_NAME":"HULIANWANG DIGUI-46","OBJECT_ID":"2025-162G","EPOCH":"2026-03-02T19:30:01.301184","MEAN_MOTION":13.2933259,"ECCENTRICITY":0.0001037,"INCLINATION":50.006,"RA_OF_ASC_NODE":287.1765,"ARG_OF_PERICENTER":67.913,"MEAN_ANOMALY":292.1852,"EPHEMERIS_TYPE":0,"CLASSIFICATION_TYPE":"U","NORAD_CAT_ID":65049,"ELEMENT_SET_NO":999,"REV_AT_EPOCH":2921,"BSTAR":0.00013075,"MEAN_MOTION_DOT":-6.3e-7,"MEAN_MOTION_DDOT":0},{"OBJECT_NAME":"HULIANWANG DIGUI-47","OBJECT_ID":"2025-162H","EPOCH":"2026-03-02T19:17:59.319456","MEAN_MOTION":13.29332403,"ECCENTRICITY":0.0001013,"INCLINATION":50.0024,"RA_OF_ASC_NODE":287.0714,"ARG_OF_PERICENTER":68.8127,"MEAN_ANOMALY":291.2853,"EPHEMERIS_TYPE":0,"CLASSIFICATION_TYPE":"U","NORAD_CAT_ID":65050,"ELEMENT_SET_NO":999,"REV_AT_EPOCH":2921,"BSTAR":0.00010223,"MEAN_MOTION_DOT":-7.7e-7,"MEAN_MOTION_DDOT":0},{"OBJECT_NAME":"HULIANWANG DIGUI-48","OBJECT_ID":"2025-162J","EPOCH":"2026-03-02T19:05:59.375904","MEAN_MOTION":13.29331963,"ECCENTRICITY":0.0001003,"INCLINATION":50.0034,"RA_OF_ASC_NODE":287.0451,"ARG_OF_PERICENTER":66.7692,"MEAN_ANOMALY":293.3285,"EPHEMERIS_TYPE":0,"CLASSIFICATION_TYPE":"U","NORAD_CAT_ID":65051,"ELEMENT_SET_NO":999,"REV_AT_EPOCH":2921,"BSTAR":0.00011183,"MEAN_MOTION_DOT":-7.2e-7,"MEAN_MOTION_DDOT":0}]
