HULIANWANG DIGUI-33     
1 64286U 25121D   26061.77346197  .00000047  00000+0  75687-4 0  9993
2 64286  86.4962  49.4948 0002093  79.2285 280.9085 13.24425262 36077
HULIANWANG DIGUI-34     
1 64287U 25121E   26061.76595640  .00000058  00000+0  10097-3 0  9997
2 64287  86.4940  49.4297 0002252  75.6787 284.4597 13.24424171 36070
HULIANWANG DIGUI-35     
1 64956U 25159A   26061.80795344  .00000088  00000+0  17101-3 0  9995
2 64956  86.4989 318.3883 0001320  70.7789 289.3487 13.24416914 29045
HULIANWANG DIGUI-36     
1 64957U 25159B   26061.80021098  .00000078  00000+0  14778-3 0  9990
2 64957  86.5009 318.4281 0001400  69.9875 290.1410 13.24419510 29049
HULIANWANG DIGUI-37     
1 64958U 25159C   26061.79266823  .00000074  00000+0  13841-3 0  9992
2 64958  86.4949 318.2941 0001481  68.1228 292.0064 13.24419139 29048
HULIANWANG DIGUI-38     
1 64959U 25159D   26061.78513329  .00000059  00000+0  10233-3 0  9993
2 64959  86.5008 318.4210 0001451  70.5871 289.5419 13.24419304 29044
HULIANWANG DIGUI-39     
1 64960U 25159E   26061.77756623  .00000052  00000+0  87160-4 0  9997
2 64960  86.4985 318.3640 0001457  71.8191 288.3102 13.24419478 29048
HULIANWANG DIGUI-40     
1 65043U 25162A   26061.78747140 -.00000073  00000+0  11092-3 0  9993
2 65043  49.9992 287.5864 0001006  65.3803 294.7174 13.29331990 29199
HULIANWANG DIGUI-41     
1 65044U 25162B   26061.77911965 -.00000066  00000+0  12467-3 0  9990
2 65044  50.0002 287.5600 0001051  65.7079 294.3903 13.29332350 29201
HULIANWANG DIGUI-42     
1 65045U 25162C   26061.77073759 -.00000073  00000+0  11007-3 0  9998
2 65045  49.9967 287.4553 0000987  66.8188 293.2788 13.29331697 29207
HULIANWANG DIGUI-43     
1 65046U 25162D   26061.83754409 -.00000064  00000+0  12959-3 0  9991
2 65046  49.9984 287.1737 0000983  65.8614 294.2360 13.29332729 29212
HULIANWANG DIGUI-44     
1 65047U 25162E   26061.75373391 -.00000063  00000+0  13237-3 0  9999
2 65047  50.0012 287.4457 0000791 344.4883  15.5965 13.29340317 29218
HULIANWANG DIGUI-45     
1 65048U 25162F   26061.74569176 -.00000061  00000+0  13514-3 0  9993
2 65048  50.0041 287.4570 0001041  65.3381 294.7600 13.29332632 29205
HULIANWANG DIGUI-46     
1 65049U 25162G   26061.81251506 -.00000063  00000+0  13075-3 0  9991
2 65049  50.0060 287.1765 0001037  67.9130 292.1852 13.29332590 29210
HULIANWANG DIGUI-47     
1 65050U 25162H   26061.80415879 -.00000077  00000+0  10223-3 0  9994
2 65050  50.0024 287.0714 0001013  68.8127 291.2853 13.29332403 29219
HULIANWANG DIGUI-48     
1 65051U 25162J   26061.79582611 -.00000072  00000+0  11183-3 0  9993
2 65051  50.0034 287.0451 0001003  66.7692 293.3285 13.29331963 29214
